start=new Date('2023-05-23T00:00:00.000Z').valueOf();
sats=[{"MEAN_MOTION_DOT":"-0.00001605","COUNTRY_CODE":"US","CLASSIFICATION_TYPE":"U","OBJECT_TYPE":"PAYLOAD","MEAN_ELEMENT_THEORY":"SGP4","REF_FRAME":"TEME","SEMIMAJOR_AXIS":"6717.860","EPHEMERIS_TYPE":"0","OBJECT_ID":"2021-021AR","RA_OF_ASC_NODE":"149.8947","PERIOD":"91.328","PERIAPSIS":"338.872","MEAN_MOTION":"15.76726248","CENTER_NAME":"EARTH","ECCENTRICITY":"0.00012710","RCS_SIZE":"LARGE","MEAN_ANOMALY":"247.2833","MEAN_MOTION_DDOT":"0.0000000000000","OBJECT_NAME":"STARLINK-2359","GP_ID":"232357799","SITE":"AFETR","ARG_OF_PERICENTER":"112.8321","APOAPSIS":"340.579","DECAY_DATE":null,"ELEMENT_SET_NO":"999","LAUNCH_DATE":"2021-03-14","NORAD_CAT_ID":"47899","INCLINATION":"53.0463","TLE_LINE2":"2 47899  53.0463 149.8947 0001271 112.8321 247.2833 15.76726248122586","TLE_LINE1":"1 47899U 21021AR  23142.74497798 -.00001605  00000-0 -58045-5 0  9991","TIME_SYSTEM":"UTC","BSTAR":"-0.00000580450000","EPOCH":"2023-05-22T17:52:46.097472","FILE":"3914964","REV_AT_EPOCH":"12258"},{"GP_ID":"232334357","OBJECT_NAME":"STARLINK-2360","MEAN_MOTION_DDOT":"0.0000000000000","MEAN_ANOMALY":"266.2191","RCS_SIZE":"LARGE","ARG_OF_PERICENTER":"93.8901","SITE":"AFETR","CENTER_NAME":"EARTH","MEAN_MOTION":"15.06392307","PERIAPSIS":"546.612","ECCENTRICITY":"0.00009020","EPHEMERIS_TYPE":"0","SEMIMAJOR_AXIS":"6925.372","PERIOD":"95.593","OBJECT_ID":"2021-021AS","RA_OF_ASC_NODE":"180.3280","MEAN_ELEMENT_THEORY":"SGP4","OBJECT_TYPE":"PAYLOAD","CLASSIFICATION_TYPE":"U","MEAN_MOTION_DOT":"-0.00004259","COUNTRY_CODE":"US","REF_FRAME":"TEME","EPOCH":"2023-05-22T12:24:30.014784","REV_AT_EPOCH":"12165","FILE":"3914886","BSTAR":"-0.00026728000000","TIME_SYSTEM":"UTC","TLE_LINE2":"2 47900  53.0531 180.3280 0000902  93.8901 266.2191 15.06392307121650","TLE_LINE1":"1 47900U 21021AS  23142.51701406 -.00004259  00000-0 -26728-3 0  9992","INCLINATION":"53.0531","NORAD_CAT_ID":"47900","DECAY_DATE":null,"APOAPSIS":"547.862","LAUNCH_DATE":"2021-03-14","ELEMENT_SET_NO":"999"},{"EPOCH":"2023-05-22T11:34:07.854240","REV_AT_EPOCH":"12178","FILE":"3914695","BSTAR":"-0.00005789900000","TIME_SYSTEM":"UTC","TLE_LINE2":"2 47901  53.0525 170.5719 0001165  84.3660 275.7461 15.06386320121788","TLE_LINE1":"1 47901U 21021AT  23142.48203535 -.00001143  00000-0 -57899-4 0  9992","INCLINATION":"53.0525","NORAD_CAT_ID":"47901","DECAY_DATE":null,"APOAPSIS":"548.062","LAUNCH_DATE":"2021-03-14","ELEMENT_SET_NO":"999","GP_ID":"232329482","MEAN_MOTION_DDOT":"0.0000000000000","OBJECT_NAME":"STARLINK-2361","MEAN_ANOMALY":"275.7461","RCS_SIZE":"LARGE","ARG_OF_PERICENTER":"84.3660","SITE":"AFETR","CENTER_NAME":"EARTH","MEAN_MOTION":"15.06386320","PERIAPSIS":"546.449","ECCENTRICITY":"0.00011650","EPHEMERIS_TYPE":"0","SEMIMAJOR_AXIS":"6925.390","PERIOD":"95.593","RA_OF_ASC_NODE":"170.5719","OBJECT_ID":"2021-021AT","MEAN_ELEMENT_THEORY":"SGP4","CLASSIFICATION_TYPE":"U","OBJECT_TYPE":"PAYLOAD","COUNTRY_CODE":"US","MEAN_MOTION_DOT":"-0.00001143","REF_FRAME":"TEME"},{"REV_AT_EPOCH":"12214","FILE":"3914964","EPOCH":"2023-05-22T20:43:29.163072","TIME_SYSTEM":"UTC","BSTAR":"0.00018936000000","TLE_LINE2":"2 47902  53.0527 188.7712 0001252  94.2378 265.8754 15.06401443122148","TLE_LINE1":"1 47902U 21021AU  23142.86353198  .00002540  00000-0  18936-3 0  9994","NORAD_CAT_ID":"47902","INCLINATION":"53.0527","LAUNCH_DATE":"2021-03-14","ELEMENT_SET_NO":"999","APOAPSIS":"548.076","DECAY_DATE":null,"ARG_OF_PERICENTER":"94.2378","SITE":"AFETR","GP_ID":"232357049","RCS_SIZE":"LARGE","MEAN_ANOMALY":"265.8754","MEAN_MOTION_DDOT":"0.0000000000000","OBJECT_NAME":"STARLINK-2362","ECCENTRICITY":"0.00012520","CENTER_NAME":"EARTH","PERIAPSIS":"546.342","MEAN_MOTION":"15.06401443","PERIOD":"95.592","RA_OF_ASC_NODE":"188.7712","OBJECT_ID":"2021-021AU","EPHEMERIS_TYPE":"0","SEMIMAJOR_AXIS":"6925.344","REF_FRAME":"TEME","MEAN_ELEMENT_THEORY":"SGP4","MEAN_MOTION_DOT":"0.00002540","COUNTRY_CODE":"US","OBJECT_TYPE":"PAYLOAD","CLASSIFICATION_TYPE":"U"},{"REF_FRAME":"TEME","MEAN_ELEMENT_THEORY":"SGP4","CLASSIFICATION_TYPE":"U","OBJECT_TYPE":"PAYLOAD","MEAN_MOTION_DOT":"-0.00003253","COUNTRY_CODE":"US","PERIOD":"95.593","RA_OF_ASC_NODE":"170.4444","OBJECT_ID":"2021-021AV","EPHEMERIS_TYPE":"0","SEMIMAJOR_AXIS":"6925.386","ECCENTRICITY":"0.00012340","CENTER_NAME":"EARTH","MEAN_MOTION":"15.06387942","PERIAPSIS":"546.396","ARG_OF_PERICENTER":"83.3159","SITE":"AFETR","GP_ID":"232334346","MEAN_MOTION_DDOT":"0.0000000000000","OBJECT_NAME":"STARLINK-2363","MEAN_ANOMALY":"276.7971","RCS_SIZE":"LARGE","LAUNCH_DATE":"2021-03-14","ELEMENT_SET_NO":"999","DECAY_DATE":null,"APOAPSIS":"548.105","TLE_LINE1":"1 47903U 21021AV  23142.48845140 -.00003253  00000-0 -19968-3 0  9996","TLE_LINE2":"2 47903  53.0525 170.4444 0001234  83.3159 276.7971 15.06387942121792","INCLINATION":"53.0525","NORAD_CAT_ID":"47903","BSTAR":"-0.00019968000000","TIME_SYSTEM":"UTC","REV_AT_EPOCH":"12179","FILE":"3914886","EPOCH":"2023-05-22T11:43:22.200960"},{"TIME_SYSTEM":"UTC","BSTAR":"-0.00014560000000","FILE":"3914693","REV_AT_EPOCH":"12222","EPOCH":"2023-05-22T08:28:20.519328","ELEMENT_SET_NO":"999","LAUNCH_DATE":"2021-03-14","APOAPSIS":"548.178","DECAY_DATE":null,"NORAD_CAT_ID":"47904","INCLINATION":"53.0521","TLE_LINE2":"2 47904  53.0521 171.0614 0001364  74.9609 285.1531 15.06393571122225","TLE_LINE1":"1 47904U 21021AW  23142.35301527 -.00002449  00000-0 -14560-3 0  9998","ECCENTRICITY":"0.00013640","PERIAPSIS":"546.289","MEAN_MOTION":"15.06393571","CENTER_NAME":"EARTH","SITE":"AFETR","ARG_OF_PERICENTER":"74.9609","RCS_SIZE":"LARGE","MEAN_ANOMALY":"285.1531","OBJECT_NAME":"STARLINK-2364","MEAN_MOTION_DDOT":"0.0000000000000","GP_ID":"232323286","REF_FRAME":"TEME","COUNTRY_CODE":"US","MEAN_MOTION_DOT":"-0.00002449","OBJECT_TYPE":"PAYLOAD","CLASSIFICATION_TYPE":"U","MEAN_ELEMENT_THEORY":"SGP4","OBJECT_ID":"2021-021AW","RA_OF_ASC_NODE":"171.0614","PERIOD":"95.593","SEMIMAJOR_AXIS":"6925.368","EPHEMERIS_TYPE":"0"},{"SITE":"AFETR","ARG_OF_PERICENTER":"70.1331","MEAN_ANOMALY":"289.9797","RCS_SIZE":"LARGE","MEAN_MOTION_DDOT":"0.0000000000000","OBJECT_NAME":"STARLINK-2365","GP_ID":"232356300","ECCENTRICITY":"0.00012900","PERIAPSIS":"546.373","MEAN_MOTION":"15.06382761","CENTER_NAME":"EARTH","RA_OF_ASC_NODE":"168.9886","OBJECT_ID":"2021-021AX","PERIOD":"95.593","SEMIMAJOR_AXIS":"6925.401","EPHEMERIS_TYPE":"0","REF_FRAME":"TEME","MEAN_MOTION_DOT":"0.00007576","COUNTRY_CODE":"US","OBJECT_TYPE":"PAYLOAD","CLASSIFICATION_TYPE":"U","MEAN_ELEMENT_THEORY":"SGP4","FILE":"3914964","REV_AT_EPOCH":"12242","EPOCH":"2023-05-22T19:30:27.685152","TIME_SYSTEM":"UTC","BSTAR":"0.00052720000000","NORAD_CAT_ID":"47905","INCLINATION":"53.0519","TLE_LINE2":"2 47905  53.0519 168.9886 0001290  70.1331 289.9797 15.06382761122424","TLE_LINE1":"1 47905U 21021AX  23142.81282043  .00007576  00000-0  52720-3 0  9995","ELEMENT_SET_NO":"999","LAUNCH_DATE":"2021-03-14","APOAPSIS":"548.160","DECAY_DATE":null},{"SITE":"AFETR","ARG_OF_PERICENTER":"86.5518","MEAN_ANOMALY":"273.5671","RCS_SIZE":"LARGE","OBJECT_NAME":"STARLINK-2366","MEAN_MOTION_DDOT":"0.0000000000000","GP_ID":"232324285","ECCENTRICITY":"0.00014900","PERIAPSIS":"338.378","MEAN_MOTION":"15.76848174","CENTER_NAME":"EARTH","RA_OF_ASC_NODE":"199.0143","OBJECT_ID":"2021-021AY","PERIOD":"91.321","SEMIMAJOR_AXIS":"6717.514","EPHEMERIS_TYPE":"0","REF_FRAME":"TEME","COUNTRY_CODE":"US","MEAN_MOTION_DOT":"0.00029084","CLASSIFICATION_TYPE":"U","OBJECT_TYPE":"PAYLOAD","MEAN_ELEMENT_THEORY":"SGP4","FILE":"3914693","REV_AT_EPOCH":"12697","EPOCH":"2023-05-22T10:31:15.401280","TIME_SYSTEM":"UTC","BSTAR":"0.00018011000000","NORAD_CAT_ID":"47906","INCLINATION":"52.9904","TLE_LINE2":"2 47906  52.9904 199.0143 0001490  86.5518 273.5671 15.76848174126978","TLE_LINE1":"1 47906U 21021AY  23142.43837270  .00029084  00000-0  18011-3 0  9995","ELEMENT_SET_NO":"999","LAUNCH_DATE":"2021-03-14","APOAPSIS":"340.380","DECAY_DATE":null},{"REF_FRAME":"TEME","CLASSIFICATION_TYPE":"U","OBJECT_TYPE":"PAYLOAD","MEAN_MOTION_DOT":"0.00007274","COUNTRY_CODE":"US","MEAN_ELEMENT_THEORY":"SGP4","OBJECT_ID":"2021-021AZ","RA_OF_ASC_NODE":"188.9605","PERIOD":"95.593","SEMIMAJOR_AXIS":"6925.401","EPHEMERIS_TYPE":"0","ECCENTRICITY":"0.00010550","MEAN_MOTION":"15.06383019","PERIAPSIS":"546.535","CENTER_NAME":"EARTH","SITE":"AFETR","ARG_OF_PERICENTER":"100.9663","OBJECT_NAME":"STARLINK-2367","MEAN_MOTION_DDOT":"0.0000000000000","RCS_SIZE":"LARGE","MEAN_ANOMALY":"259.1445","GP_ID":"232357800","ELEMENT_SET_NO":"999","LAUNCH_DATE":"2021-03-14","DECAY_DATE":null,"APOAPSIS":"547.996","INCLINATION":"53.0531","NORAD_CAT_ID":"47907","TLE_LINE2":"2 47907  53.0531 188.9605 0001055 100.9663 259.1445 15.06383019121997","TLE_LINE1":"1 47907U 21021AZ  23142.82297544  .00007274  00000-0  50693-3 0  9992","BSTAR":"0.00050693000000","TIME_SYSTEM":"UTC","FILE":"3914964","REV_AT_EPOCH":"12199","EPOCH":"2023-05-22T19:45:05.078016"},{"MEAN_ELEMENT_THEORY":"SGP4","COUNTRY_CODE":"US","MEAN_MOTION_DOT":"0.00009910","OBJECT_TYPE":"PAYLOAD","CLASSIFICATION_TYPE":"U","REF_FRAME":"TEME","EPHEMERIS_TYPE":"0","SEMIMAJOR_AXIS":"6925.409","PERIOD":"95.593","RA_OF_ASC_NODE":"188.9241","OBJECT_ID":"2021-021BA","CENTER_NAME":"EARTH","PERIAPSIS":"546.511","MEAN_MOTION":"15.06380119","ECCENTRICITY":"0.00011020","GP_ID":"232357537","RCS_SIZE":"LARGE","MEAN_ANOMALY":"253.7793","MEAN_MOTION_DDOT":"0.0000000000000","OBJECT_NAME":"STARLINK-2368","ARG_OF_PERICENTER":"106.3318","SITE":"AFETR","APOAPSIS":"548.038","DECAY_DATE":null,"LAUNCH_DATE":"2021-03-14","ELEMENT_SET_NO":"999","TLE_LINE1":"1 47908U 21021BA  23142.83034727  .00009910  00000-0  68359-3 0  9993","TLE_LINE2":"2 47908  53.0533 188.9241 0001102 106.3318 253.7793 15.06380119122025","NORAD_CAT_ID":"47908","INCLINATION":"53.0533","TIME_SYSTEM":"UTC","BSTAR":"0.00068359000000","EPOCH":"2023-05-22T19:55:42.004128","REV_AT_EPOCH":"12202","FILE":"3914964"}];
